LAOSAT 1                
1 41034U 15067A   26193.73103572 -.00000343  00000+0  00000+0 0  9999
2 41034   0.0367 146.7169 0002159 272.1151 263.4728  1.00269619 39110
TELSTAR 12V             
1 41036U 15068A   26193.84515023  .00000000  00000+0  00000+0 0  9991
2 41036   0.0259  44.2557 0002058  65.9867 109.7549  1.00269982 38884
ELEKTRO-L 2             
1 41105U 15074A   26193.41753080 -.00000122  00000+0  00000+0 0  9991
2 41105   6.7537  70.2096 0000935 216.0693 139.8337  1.00272262 38758
COSMOS 2513             
1 41121U 15075A   26194.07790412 -.00000139  00000+0  00000+0 0  9991
2 41121   0.0633 103.1119 0002659 342.9533 313.1741  1.00268860 38800
EXPRESS-AMU1            
1 41191U 15082A   26193.78308711  .00000155  00000+0  00000+0 0  9997
2 41191   0.0157  69.5654 0002307  52.3192 126.7792  1.00272296 38521
GAOFEN-4                
1 41194U 15083A   26194.01161652 -.00000337  00000+0  00000+0 0  9992
2 41194   0.4214  83.8417 0004171 125.4227 191.4927  1.00272598 38782
BELINTERSAT-1           
1 41238U 16001A   26193.76364029  .00000107  00000+0  00000+0 0  9990
2 41238   0.0615 251.9397 0001928 177.1991 187.9048  1.00272161 38494
IRNSS-1E                
1 41241U 16003A   26191.58253116 -.00000316  00000+0  00000+0 0  9991
2 41241  33.2836  59.4106 0019285 178.7449  11.7354  1.00267797 38314
EUTELSAT 9B             
1 41310U 16005A   26193.82197674  .00000061  00000+0  00000+0 0  9991
2 41310   0.0308  55.4581 0001013  45.0889 135.0582  1.00269819 38370
SES-9                   
1 41380U 16013A   26193.79832747 -.00000345  00000+0  00000+0 0  9996
2 41380   0.0163 328.3250 0002070 139.1169 218.9447  1.00270638 37697
EUTELSAT 65 WEST A      
1 41382U 16014A   26193.83524764 -.00000277  00000+0  00000+0 0  9995
2 41382   0.0643 318.5094 0002008 155.8858  51.8289  1.00270015 37787
IRNSS-1F                
1 41384U 16015A   26193.78328800  .00000151  00000+0  00000+0 0  9995
2 41384   5.4114  96.1895 0017658 180.1583 328.8595  1.00265026 37921
BEIDOU-2 IGSO-6         
1 41434U 16021A   26177.11016981 -.00000145  00000+0  00000+0 0  9995
2 41434  60.2385  37.9495 0057558 231.0163 137.2672  1.00258926 37578
IRNSS-1G                
1 41469U 16027A   26193.65988704 -.00000339  00000+0  00000+0 0  9992
2 41469   5.2566  96.8853 0005969  10.0923 190.8085  1.00272402 37439
JCSAT-2B                
1 41471U 16028A   26193.73606241 -.00000166  00000+0  00000+0 0  9996
2 41471   0.0179  32.7069 0000748  77.1668 239.7343  1.00270744 37384
THAICOM 8               
1 41552U 16031A   26193.88063343 -.00000122  00000+0  00000+0 0  9998
2 41552   0.0713  46.9027 0002955  26.8290 252.5492  1.00270499 36972
INTELSAT 31 (IS-31)     
1 41581U 16035A   26193.82918095 -.00000151  00000+0  00000+0 0  9993
2 41581   0.0178 286.2531 0001167 358.9142 209.0048  1.00271078 36942
BEIDOU-2 G7             
1 41586U 16037A   26193.87004567 -.00000356  00000+0  00000+0 0  9992
2 41586   1.7801  69.4782 0006005 359.1861 285.8304  1.00274768  7140
ABS-2A (MONGOLSAT-1)    
1 41588U 16038A   26193.86275079 -.00000084  00000+0  00000+0 0  9990
2 41588   0.0141  24.0012 0001237  30.9743 261.0606  1.00269036 36964
EUTELSAT 117 WEST B     
1 41589U 16038B   26193.39142009 -.00000010  00000+0  00000+0 0  9994
2 41589   0.0123 120.2937 0000259 354.1008 199.8112  1.00270256 36919
BRISAT                  
1 41591U 16039A   26193.80664750 -.00000197  00000+0  00000+0 0  9992
2 41591   0.0157 353.3678 0001872 118.1028 260.1126  1.00270654 36865
ECHOSTAR 18             
1 41592U 16039B   26193.83594097 -.00000283  00000+0  00000+0 0  9998
2 41592   0.0183  33.0723 0001361  89.6553  47.5635  1.00270514 36885
MUOS-5                  
1 41622U 16041A   26193.61319419 -.00000124  00000+0  00000+0 0  9998
2 41622   2.1506 302.1493 0199442 260.6428 203.3160  1.00271730 37343
TIANTONG-1 1            
1 41725U 16048A   26193.74260307 -.00000320  00000+0  00000+0 0  9992
2 41725   3.8970  43.6042 0004948  57.4978 198.2594  1.00269883 36523
JCSAT-16                
1 41729U 16050A   26193.80534750 -.00000252  00000+0  00000+0 0  9996
2 41729   0.0179  34.8265 0000857  95.8316 233.9023  1.00270497 36328
USA 270                 
1 41744U 16052A   26192.47641677 -.00000349  00000+0  00000+0 0  9991
2 41744   4.2578  76.8776 0009314 101.3149  48.8838  1.00269374 28376
USA 271                 
1 41745U 16052B   26188.73473646 -.00000278  00000+0  00000+0 0  9996
2 41745   4.2217  76.9947 0010955 166.6184  44.5685  1.00271212 28124
INTELSAT 36 (IS-36)     
1 41747U 16053A   26193.86275079 -.00000025  00000+0  00000+0 0  9999
2 41747   0.0101  12.8267 0002520 328.1376 328.8596  1.00270001 36216
INSAT-3DR               
1 41752U 16054A   26193.86275079 -.00000078  00000+0  00000+0 0  9994
2 41752   0.0638  88.7689 0010623 181.1963  45.3759  1.00270666 36072
GSAT-18                 
1 41793U 16060A   26193.86275079 -.00000077  00000+0  00000+0 0  9995
2 41793   0.0294  89.4253 0005233 348.6157 237.2633  1.00271091 35789
SKY MUSTER 2 (NBN1B)    
1 41794U 16060B   26193.80552082 -.00000245  00000+0  00000+0 0  9999
2 41794   0.0155 353.5851 0001412 123.1007 248.7814  1.00269892 35773
HIMAWARI-9              
1 41836U 16064A   26193.80474082 -.00000276  00000+0  00000+0 0  9997
2 41836   0.0065 112.0078 0002252  66.6987 182.4418  1.00271255 35466
