OBJECT_NAME,OBJECT_ID,EPOCH,MEAN_MOTION,ECCENTRICITY,INCLINATION,RA_OF_ASC_NODE,ARG_OF_PERICENTER,MEAN_ANOMALY,EPHEMERIS_TYPE,CLASSIFICATION_TYPE,NORAD_CAT_ID,ELEMENT_SET_NO,REV_AT_EPOCH,BSTAR,MEAN_MOTION_DOT,MEAN_MOTION_DDOT
LAOSAT 1,2015-067A,2026-07-12T17:32:41.486208,1.00269619,.0002159,0.0367,146.7169,272.1151,263.4728,0,U,41034,999,3911,0,-.343E-5,0
TELSTAR 12V,2015-068A,2026-07-12T20:17:00.979872,1.00269982,.0002058,0.0259,44.2557,65.9867,109.7549,0,U,41036,999,3888,0,0,0
ELEKTRO-L 2,2015-074A,2026-07-12T10:01:14.661120,1.00272262,.00009352,6.7537,70.2096,216.0693,139.8337,0,U,41105,999,3875,0,-.122E-5,0
COSMOS 2513,2015-075A,2026-07-13T01:52:10.915968,1.00268860,.0002659,0.0633,103.1119,342.9533,313.1741,0,U,41121,999,3880,0,-.139E-5,0
EXPRESS-AMU1,2015-082A,2026-07-12T18:47:38.726304,1.00272296,.0002307,0.0157,69.5654,52.3192,126.7792,0,U,41191,999,3852,0,.155E-5,0
GAOFEN-4,2015-083A,2026-07-13T00:16:43.667328,1.00272598,.0004171,0.4214,83.8417,125.4227,191.4927,0,U,41194,999,3878,0,-.337E-5,0
BELINTERSAT-1,2016-001A,2026-07-12T18:19:38.521056,1.00272161,.0001928,0.0615,251.9397,177.1991,187.9048,0,U,41238,999,3849,0,.107E-5,0
IRNSS-1E,2016-003A,2026-07-10T13:58:50.692224,1.00267797,.0019285,33.2836,59.4106,178.7449,11.7354,0,U,41241,999,3831,0,-.316E-5,0
EUTELSAT 9B,2016-005A,2026-07-12T19:43:38.790336,1.00269819,.0001013,0.0308,55.4581,45.0889,135.0582,0,U,41310,999,3837,0,.61E-6,0
SES-9,2016-013A,2026-07-12T19:09:35.493408,1.00270638,.000207,0.0163,328.3250,139.1169,218.9447,0,U,41380,999,3769,0,-.345E-5,0
EUTELSAT 65 WEST A,2016-014A,2026-07-12T20:02:45.396096,1.00270015,.0002008,0.0643,318.5094,155.8858,51.8289,0,U,41382,999,3778,0,-.277E-5,0
IRNSS-1F,2016-015A,2026-07-12T18:47:56.083200,1.00265026,.0017658,5.4114,96.1895,180.1583,328.8595,0,U,41384,999,3792,0,.151E-5,0
BEIDOU-2 IGSO-6,2016-021A,2026-06-26T02:38:38.671584,1.00258926,.0057558,60.2385,37.9495,231.0163,137.2672,0,U,41434,999,3757,0,-.145E-5,0
IRNSS-1G,2016-027A,2026-07-12T15:50:14.240256,1.00272402,.0005969,5.2566,96.8853,10.0923,190.8085,0,U,41469,999,3743,0,-.339E-5,0
JCSAT-2B,2016-028A,2026-07-12T17:39:55.792224,1.00270744,.0000748,0.0179,32.7069,77.1668,239.7343,0,U,41471,999,3738,0,-.166E-5,0
THAICOM 8,2016-031A,2026-07-12T21:08:06.728352,1.00270499,.0002955,0.0713,46.9027,26.8290,252.5492,0,U,41552,999,3697,0,-.122E-5,0
INTELSAT 31 (IS-31),2016-035A,2026-07-12T19:54:01.234080,1.00271078,.0001167,0.0178,286.2531,358.9142,209.0048,0,U,41581,999,3694,0,-.151E-5,0
BEIDOU-2 G7,2016-037A,2026-07-12T20:52:51.945888,1.00274768,.0006005,1.7801,69.4782,359.1861,285.8304,0,U,41586,999,714,0,-.356E-5,0
ABS-2A (MONGOLSAT-1),2016-038A,2026-07-12T20:42:21.668256,1.00269036,.0001237,0.0141,24.0012,30.9743,261.0606,0,U,41588,999,3696,0,-.84E-6,0
EUTELSAT 117 WEST B,2016-038B,2026-07-12T09:23:38.695776,1.00270256,.00002597,0.0123,120.2937,354.1008,199.8112,0,U,41589,999,3691,0,-.1E-6,0
BRISAT,2016-039A,2026-07-12T19:21:34.344000,1.00270654,.0001872,0.0157,353.3678,118.1028,260.1126,0,U,41591,999,3686,0,-.197E-5,0
ECHOSTAR 18,2016-039B,2026-07-12T20:03:45.299808,1.00270514,.0001361,0.0183,33.0723,89.6553,47.5635,0,U,41592,999,3688,0,-.283E-5,0
MUOS-5,2016-041A,2026-07-12T14:42:59.978016,1.00271730,.0199442,2.1506,302.1493,260.6428,203.3160,0,U,41622,999,3734,0,-.124E-5,0
TIANTONG-1 1,2016-048A,2026-07-12T17:49:20.905248,1.00269883,.0004948,3.8970,43.6042,57.4978,198.2594,0,U,41725,999,3652,0,-.32E-5,0
JCSAT-16,2016-050A,2026-07-12T19:19:42.024000,1.00270497,.0000857,0.0179,34.8265,95.8316,233.9023,0,U,41729,999,3632,0,-.252E-5,0
USA 270,2016-052A,2026-07-11T11:26:02.408928,1.00269374,.0009314,4.2578,76.8776,101.3149,48.8838,0,U,41744,999,2837,0,-.349E-5,0
USA 271,2016-052B,2026-07-07T17:38:01.230144,1.00271212,.0010955,4.2217,76.9947,166.6184,44.5685,0,U,41745,999,2812,0,-.278E-5,0
INTELSAT 36 (IS-36),2016-053A,2026-07-12T20:42:21.668256,1.00270001,.000252,0.0101,12.8267,328.1376,328.8596,0,U,41747,999,3621,0,-.25E-6,0
INSAT-3DR,2016-054A,2026-07-12T20:42:21.668256,1.00270666,.0010623,0.0638,88.7689,181.1963,45.3759,0,U,41752,999,3607,0,-.78E-6,0
GSAT-18,2016-060A,2026-07-12T20:42:21.668256,1.00271091,.0005233,0.0294,89.4253,348.6157,237.2633,0,U,41793,999,3578,0,-.77E-6,0
SKY MUSTER 2 (NBN1B),2016-060B,2026-07-12T19:19:56.998848,1.00269892,.0001412,0.0155,353.5851,123.1007,248.7814,0,U,41794,999,3577,0,-.245E-5,0
HIMAWARI-9,2016-064A,2026-07-12T19:18:49.606848,1.00271255,.0002252,0.0065,112.0078,66.6987,182.4418,0,U,41836,999,3546,0,-.276E-5,0
